<?xml version="1.0" encoding="UTF-8"?>
<kml xmlns="http://www.opengis.net/kml/2.2" xmlns:gx="http://www.google.com/kml/ext/2.2">
    <Document id="1">
        <Style id="4">
            <LineStyle id="5">
                <color>641400F0</color>
                <colorMode>normal</colorMode>
            </LineStyle>
            <PolyStyle id="6">
                <color>641400F0</color>
                <colorMode>normal</colorMode>
                <fill>1</fill>
                <outline>1</outline>
            </PolyStyle>
        </Style>
        <open>1</open>
        <Placemark id="3">
            <name>Rocket Trajectory - Powered by RocketPy</name>
            <styleUrl>#4</styleUrl>
            <LineString id="2">
                <extrude>1</extrude>
                <altitudeMode>absolute</altitudeMode>
                <coordinates>80.004222,13.468556,44.65153503417969 80.004222,13.468556,44.65153503417969 80.004222,13.468556,44.65153503417969 80.00422200000027,13.468555999999742,44.651535498034534 80.00422200000129,13.468555999998753,44.65153727965546 80.00422200000573,13.468555999994434,44.65154504984739 80.00422200001691,13.468555999983556,44.65156462010725 80.00422200003862,13.468555999962433,44.651602622863024 80.00422200165075,13.468555998394653,44.654423219726894 80.00422200242372,13.46855599764294,44.65577562789784 80.00422200340458,13.468555996689052,44.657491770461974 80.0042220046173,13.46855599550968,44.65961358381605 80.00422200588939,13.468555994272583,44.66183924891049 80.00422200735811,13.468555992844255,44.66440895894564 80.0042220090236,13.468555991224582,44.66732291491994 80.00422201294522,13.4685559874108,44.674184301948806 80.00422201765527,13.468555982830287,44.68242511953011 80.00422202315464,13.468555977482165,44.692046943869634 80.00422202944424,13.468555971365536,44.70305138509458 80.0042221360024,13.468555867737956,44.88948808869041 80.00422232257512,13.468555686296382,45.21592019224335 80.00422259003942,13.46855542618791,45.683882147809236 80.00422293924568,13.46855508658556,46.294861788080205 80.00422377471665,13.468554274091787,47.756621855284294 80.0042238135617,13.468554236353818,47.824439884299615 80.00422385291381,13.468554198161803,47.89299856733086 80.00422393263307,13.468554120869376,48.03159819822274 80.00422401438422,13.46855404175959,48.173164250919164 80.00422409817057,13.46855396083121,48.31770048673283 80.0042245278993,13.468553547817539,49.05149927118209 80.00422500458536,13.468553092797348,49.853971921052334 80.0042255281804,13.46855259544066,50.72551295549297 80.0042260983849,13.468552055292408,51.666510442587075 80.00422720029503,13.468551011115588,53.47134847368804 80.00422843639657,13.468549831138787,55.48971784429768 80.00422979864943,13.468548509486697,57.723445718651455 80.00423127605212,13.468547038554787,60.17425610991879 80.00423285449274,13.468545408908913,62.843758141452135 80.00423320367493,13.468545038652897,63.44334163776478 80.00423355652299,13.468544660505295,64.05301473477712 80.00423391284639,13.468544274341701,64.6727909685633 80.00423427245013,13.468543880034813,65.30268354212167 80.00423554383045,13.46854244558758,67.56886280186473 80.00423684354307,13.468540905596777,69.95770731786256 80.00423816232983,13.468539253988586,72.46968469053658 80.00423949066294,13.468537484466717,75.10521717558498 80.00424114965736,13.468535097599322,78.57318984524143 80.0042427908305,13.468532504496167,82.23535763526776 80.00424439817564,13.468529693958967,86.0922642563629 80.00424595854787,13.468526656358161,90.14437518337431 80.00424746272593,13.468523384324019,94.39209670398944 80.00424817173597,13.468521708411211,96.52668124770614 80.00424886626112,13.468519975779495,98.70756789208133 80.00424954651972,13.468518186362859,100.93479328768977 80.00425021302311,13.468516340284118,103.20839197993327 80.00425158437028,13.46851224104856,108.18166506226223 80.00425290906372,13.468507894301604,113.36374483094414 80.00425375043116,13.468504946826972,116.83634073916508 80.00425458328995,13.468501901583336,120.39688454804235 80.00425479073945,13.46850112534358,121.30076422414369 80.00425499802937,13.468500343225127,122.21014148711855 80.00425520523203,13.46849955527472,123.1250162557064 80.00425541241792,13.468498761538498,124.04538833445544 80.0042556196557,13.468497962062072,124.97125736934989 80.00425573948687,13.468497497372528,125.50890707478106 80.00425585937012,13.46849703078878,126.04839295732604 80.0042559793176,13.468496562319197,126.58971491960772 80.00425609934119,13.468496091972026,127.13287283809355 80.00425622157937,13.468495611384498,127.68752548759637 80.00425634392005,13.46849512886906,128.24407934509287 80.00425646637463,13.468494644433875,128.8025342601333 80.00425709545914,13.46849213444855,131.69145264898867 80.00425772908262,13.468489575319477,134.6301681782229 80.00425788831751,13.468488927956578,135.37262389663022 80.00425804790645,13.468488277582665,136.1181890641991 80.0042582078583,13.468487624206944,136.86686302014826 80.0042583681805,13.468486967837912,137.61864504068274 80.00425848245575,13.468486499107089,138.1553224373012 80.00425859692281,13.468486028867764,138.6935719251149 80.00425871158274,13.468485557122081,139.23339321469933 80.00425882565048,13.468485087111864,139.77108007174016 80.0042589399093,13.468484615619278,140.31031673040013 80.00425905435894,13.468484142645679,140.85110287584078 80.00425959441904,13.468481901185257,143.4120137527603 80.00425995981277,13.468480375569722,145.1532833971479 80.00426032686892,13.468478835167126,146.90997988246943 80.00426061781583,13.468477608238992,148.30813211165434 80.00426090961356,13.468476372029722,149.71589016195472 80.00426120215187,13.468475126496116,151.13324684136273 80.00426159677279,13.468473435767981,153.05552084381162 80.00426199220301,13.468471727927147,154.99514203255976 80.00426238803861,13.468470002785772,156.9520882109774 80.00426278385872,13.468468260138117,158.92633744212435 80.00426339861164,13.468465513458321,162.03235983784714 80.00426401049911,13.468462722946748,165.18012004880327 80.00426461772943,13.468459887650301,168.36951987500612 80.00426521852697,13.468457006602488,171.6004552222816 80.00426578730273,13.468454198756765,174.73904135425212 80.00426634726294,13.468451347186502,177.91565445745326 80.00426655472856,13.468450266324727,179.11677692549281 80.004266661517,13.468449704546757,179.74041748485195 80.00426672381461,13.468449375076528,180.10596395032692 80.00426673387322,13.468449321741197,180.1651231487147 80.00426674392823,13.468449268390858,180.22429501493443 80.00426676187276,13.468449173073418,180.33000080701788 80.00426677980622,13.4684490777104,180.43574468979233 80.00426687278132,13.468448581969623,180.98528616280996 80.0042669654826,13.468448085160295,181.53569310054104 80.0042670579358,13.468447587443151,182.08680393932536 80.00426737258482,13.468445881759783,183.9734850407916 80.00426746250693,13.468445391590087,184.51514182398017 80.00426751718248,13.468445093244892,184.84472639308382 80.00426757182456,13.468444794894484,185.17424457612222 80.00426762643343,13.468444496540815,185.50369432260126 80.0042677355514,13.468443899823185,186.1623885367211 80.00426784453605,13.468443303091256,186.82080908769856 80.00426795338731,13.468442706344378,187.47895603339492 80.0042680414813,13.46844222284686,188.01198819484642 80.00426812948811,13.468441739339047,188.54484082752938 80.00426821740814,13.468441255820848,189.07751396666467 80.00426839102704,13.468440299577427,190.13040812828424 80.00426856431399,13.468439343294245,191.18260074151675 80.0042687372759,13.46843838697312,192.23409212312717 80.00426907918721,13.468436491336664,194.3161989817634 80.00426941994476,13.468434595599684,196.3955550401936 80.00426975965537,13.468432699810924,198.47216336159758 80.00427032449322,13.468429536496318,201.93113164346926 80.00427088745978,13.468426373570528,205.38247513365266 80.00427144931632,13.46842321145398,208.8262107219543 80.00427201087987,13.468420050613892,212.26235604583468 80.00427276199133,13.468415830918518,216.8408321982095 80.00427330405572,13.468412797044365,220.1270920572554 80.00427384812001,13.46840976573615,223.40638925346389 80.00427429207635,13.468407304529597,226.06612635489148 80.00427473790232,13.46840484538527,228.72128104717643 80.00427518574915,13.46840238841453,231.37185946170942 80.00427563571257,13.468399933696302,234.01786726856054 80.00427626739777,13.468396511151933,237.7036369128259 80.00427690322749,13.468393093106341,241.38052421596927 80.00427754291944,13.468389679440468,245.04853996606062 80.00427818602385,13.468386269924489,248.70769336886482 80.00427883196997,13.468382864243337,252.35799229385194 80.00427948010277,13.468379462017985,255.9994434552846 80.00428012972034,13.46837606282754,259.6320526506045 80.00428078011706,13.468372666248309,263.2558101583514 80.00428153787854,13.468368712269662,267.46600524946814 80.00428211197212,13.46836571577981,270.6503618632047 80.00428268527743,13.468362720426283,273.82779662629565 80.00428325752887,13.468359726012565,276.99831451290663 80.00428373297153,13.468357233812453,279.63244842728096 80.00428420746995,13.468354742078246,282.2617982603964 80.0042846809645,13.468352250744298,284.88636686260025 80.00428515342013,13.46834975975781,287.5061575647097 80.00428578241446,13.46834643538635,290.9955009464972 80.00428640965241,13.468343111564375,294.47635184791085 80.00428703536083,13.468339788368041,297.9487235609139 80.00428765986732,13.468336465947552,301.4126297636784 80.00428828357249,13.468333144511108,304.86808469017586 80.00428905916935,13.468329013621156,309.15570327853425 80.00428983513838,13.468324885181536,313.43029459896957 80.00429061237129,13.468320759744634,317.6918887984305 80.00429139167233,13.468316637833345,321.9405149465032 80.00429217371304,13.468312519906554,326.1762017338428 80.00429295899283,13.468308406329843,330.3989752752107 80.00429416304388,13.468302143865325,336.81201460315833 80.00429515840398,13.468297007408925,342.0579984514116 80.0042961589054,13.468291878149588,347.2838510009152 80.0042971637107,13.46828675562377,352.48960597355966 80.00429817174066,13.468281639177395,357.67528986648733 80.00429918181216,13.468276528046514,362.84092680714474 80.0043001927732,13.468271421441978,367.98654262570045 80.00430164004419,13.468264115401858,375.3200908610829 80.00430279163763,13.468258298879533,381.1337099092749 80.00430394142822,13.468252485792899,386.9214011185207 80.00430508957196,13.468246676030946,392.6832184155052 80.0043062366985,13.468240869807333,398.4192216568319 80.0043073837777,13.468235067590536,404.12947458979505 80.00430853196153,13.468229270011772,409.8140433201412 80.00430986815707,13.46822254460235,416.3828162708038 80.00431120900215,13.46821582738328,422.9171431144514 80.00431255559342,13.468209119101278,429.4171223301518 80.00431390839528,13.468202420128458,435.8828468898842 80.00431526723197,13.468195730430327,442.31439863889256 80.0043166313917,13.468189049606098,448.71184902367474 80.00431799980409,13.46818237698162,455.0752634341252 80.0043193712542,13.468175711735032,461.4047058448989 80.00432074459175,13.468169053031039,467.7002412627558 80.00432243905038,13.468160851435295,475.4154514247773 80.00432380881692,13.468154229305371,481.61284056245523 80.00432517888672,13.468147612132274,487.776789983038 80.00432654957623,13.468140999950243,493.9073757790137 80.00432792148074,13.468134392995061,500.00467808225244 80.00432929535842,13.468127791638736,506.06877883749667 80.00433067199553,13.468121196326765,512.099759581429 80.00433229182289,13.468113465284935,519.1348840632984 80.00433354694465,13.468107498704912,524.5395685587941 80.0043345544116,13.468102724733217,528.8487554450799 80.00433556379211,13.468097955160399,533.1406351592415 80.0043365750231,13.468093189993537,537.4152342186748 80.00433758801836,13.468088429141915,541.6725775850846 80.0043386026425,13.468083672479546,545.9126892496539 80.0043396187266,13.468078919848177,550.1355933058787 80.00434079409546,13.468073434441557,554.9924098879835 80.00434197098886,13.468067953720924,559.8263253516717 80.00434314924053,13.46806247725277,564.6373729869591 80.00434432873023,13.468057004631198,569.4255868395484 80.00434550938938,13.468051535517098,574.1910014232468 80.00434669120533,13.468046069658806,578.933652050841 80.00434787421945,13.468040606901777,583.6535746911444 80.0043490585188,13.468035147189617,588.3508066925488 80.0043507140111,13.46802753136204,594.8696201678637 80.00435237261955,13.468019921887814,601.3444065381988 80.00435403472764,13.468012319314816,607.7752755785497 80.00435541181928,13.468006039251515,613.059166307797 80.00435679164715,13.4679997646807,618.3131708726372 80.00435817426676,13.467993495871877,623.5373495121553 80.00435955967112,13.467987233003024,628.7317593964817 80.00436094779621,13.467980976145075,633.8964566649694 80.0043628634152,13.467972370563322,640.9594242864441 80.0043647836162,13.467963775924941,647.9662897912169 80.0043667079955,13.467955191603572,654.9171814065172 80.00436829431162,13.467948135330852,660.5947220424353 80.00436988305957,13.467941085108095,666.2345182127708 80.00437147415496,13.467934040572207,671.8366395147307 80.00437306757728,13.467927001450267,677.4011566445826 80.00437466336406,13.467919967577012,682.928141012829 80.00437674443278,13.467910818701398,690.0670273579367 80.00437882990349,13.467901678745955,697.1425918061539 80.00438092005284,13.46789254801901,704.1549962675954 80.00438301512001,13.467883426926546,711.1044015036978 80.00438511526124,13.467874315861119,717.9909668043338 80.0043872205233,13.467865215108919,724.8148474421922 80.0043893308436,13.467856124787058,731.576193825688 80.00439144607182,13.467847044823698,738.275151262789 80.00439386924273,13.467836680020328,745.8549398572734 80.00439579726245,13.467828460156326,751.8150194559637 80.00439772890512,13.46782024813089,757.724082126481 80.00439966418068,13.467812043837405,763.5822307407883 80.00440160314646,13.467803847217057,769.3895678109656 80.00440354585805,13.46779565819376,775.1461939648175 80.0044061696025,13.46778463538353,782.8231476316369 80.00440880021192,13.46777362583701,790.408440559146 80.0044114376553,13.467762629256624,797.9023070735511 80.00441408186246,13.467751645392017,805.3049782187303 80.00441673272888,13.467740674048217,812.6166824886013 80.0044193901432,13.46772971509686,819.8376448342361 80.00442205399429,13.467718768465636,826.9680875784655 80.00442513950188,13.467706136816732,835.0936617524958 80.00442823336924,13.467693521514724,843.0990389617851 80.00443133554974,13.467680922504172,850.9845468276999 80.00443444604961,13.467668339654274,858.7505061870321 80.00443756490021,13.467655772745344,866.3972311008563 80.00444104401633,13.467641812225848,874.763417330914 80.00444453349044,13.467627870647519,882.9828647500198 80.00444803326856,13.46761394759766,891.0559784346663 80.00445154324981,13.467600042718372,898.9831553849106 80.0044550633029,13.467586155722024,906.7647848143374 80.00445941161654,13.467569079168538,916.1478734703358 80.00446377474371,13.467552029066649,925.3115296964004 80.00446815248077,13.467535005135085,934.2564343477756 80.00447254468187,13.467518007086342,942.9832507528957 80.00447695125274,13.467501034592837,951.492624169534 80.00448182594265,13.467482352080616,960.6227041248326 80.00448671793379,13.467463699629981,969.4900712491681 80.0044916271251,13.467445076689039,978.0955147248109 80.004496553388,13.46742648273479,986.4397992125694 80.00449754067584,13.467422767379452,988.0773826271281 80.00449852863692,13.467419053165111,989.704555274452 80.0044995172643,13.467415340097752,991.3213230809098 80.00450050654811,13.467411628188303,992.9276920081467 80.00450234436661,13.467404741975404,995.8815816493706 80.00450418433644,13.467397859880903,998.7997079926955 80.00450602638968,13.467390981985352,1001.6821083376789 80.004507870473,13.467384108347295,1004.5288192386265 80.00450971654698,13.467377239004469,1007.3398765305237 80.00451374721938,13.467362280799913,1013.34378976437 80.0045170019463,13.467350241909552,1018.059064665921 80.00452026260592,13.467338216294905,1022.6648575383992 80.00452352924823,13.467326203797402,1027.1613427998216 80.00452680198183,13.467314204181639,1031.548689708491 80.00453008095212,13.46730221717026,1035.8270629734525 80.00453336631799,13.467290242481528,1039.9966234460078 80.00453665823451,13.467278279857066,1044.0575286937037 80.00453995684231,13.467266329079083,1048.009933434291 80.0045442017329,13.467251003273542,1052.9253744861733 80.00454845804815,13.467235696500577,1057.662546701727 80.00455272592566,13.467220408687693,1062.2217611780072 80.00455700544549,13.467205139907849,1066.603324096598 80.00456129664444,13.467189890359414,1070.8075369909168 80.00456646146205,13.467171616906192,1075.6188571252271 80.00457164312793,13.467153372222155,1080.175730483987 80.00457684167598,13.467135157052716,1084.4786524822036 80.0045820571924,13.46711697219658,1088.5281102498388 80.00458728983226,13.467098818476885,1092.324583890269 80.00459353989274,13.467077255265549,1096.5137683345301 80.00459981505075,13.467055738734492,1100.3461015967325 80.0046061159439,13.46703427027302,1103.8223763771266 80.00461244329544,13.467012851243654,1106.9433905708058 80.00461879787174,13.46699148296159,1109.709954471596 80.00462611276723,13.466967065261478,1112.4450037351212 80.0046334654824,13.466942717475979,1114.7171803951094 80.00464085694361,13.466918441018024,1116.5278660165382 80.00464828789002,13.466894236993818,1117.8785696697819 80.00465575886926,13.466870106189281,1118.7710011918348 80.00466327019205,13.466846048987996,1119.2071865268651 80.00466674971116,13.466834973109684,1119.2552884640772 80.00466686917468,13.466834593595369,1119.2552278934195 80.00466704467689,13.466834036203991,1119.254811400962 80.00466722020066,13.466833478851875,1119.2541506408575 80.00466757129136,13.466832364226125,1119.252340664253 80.00466792246829,13.46683124975722,1119.2495539337058 80.00466827373131,13.466830135444942,1119.2457907684486 80.0046717910645,13.466819000873507,1119.154527101314 80.00467531681431,13.466807881598326,1118.9659966525758 80.0046788506995,13.46679677709703,1118.6805696943977 80.00468239229211,13.466785686580383,1118.298646436523 80.0046870013753,13.4667713050185,1117.6594330367245 80.0046916204678,13.466756941561624,1116.859184358746 80.0046962468552,13.46674259124606,1115.898810133813 80.00470087699418,13.4667282475978,1114.779099559995 80.00470550655928,13.466713902716913,1113.5006177652638 80.00471013067816,13.466699547704806,1112.0635876974036 80.00471474439516,13.466685173507038,1110.467775570806 80.0047184834729,13.466673471246132,1109.053299385506 80.00472221122074,13.46666174814706,1107.5327279654625 80.00472592717897,13.466650003347835,1105.9051124460384 80.00472963244363,13.466638238816985,1104.169301948201 80.0047333300677,13.466626460084585,1102.3240217104158 80.0047365661949,13.466616140414523,1100.6170411114397 80.00473665361315,13.466615866170846,1100.570552785298 80.00473674190695,13.466615593516059,1100.5243490030628 80.00473692022331,13.466615051343654,1100.4325029220256 80.0047371019528,13.466614515365144,1100.3417647323138 80.00473728700862,13.466613985422953,1100.2521049111417 80.00473820960184,13.466611545229782,1099.8399575046726 80.00473919738225,13.466609223330002,1099.4487862165736 80.00474024364668,13.466607007557666,1099.076312498289 80.00474134263727,13.46660488746267,1098.720579739778 80.004743090919,13.46660184814122,1098.2115287868635 80.00474493407273,13.466598980967612,1097.7320399515697 80.0047468605566,13.466596264994651,1097.2781967312774 80.00474886073764,13.466593682739788,1096.8467323134355 80.00475092666126,13.46659121976663,1096.4349526816561 80.0047546338414,13.466587208721359,1095.7630809923558 80.00475848989142,13.466583467760712,1095.133956738921 80.00476247280756,13.466579956952545,1094.5401748778609 80.0047665655925,13.46657664545089,1093.9760445981294 80.00477075445994,13.466573508237122,1093.4369743815746 80.00477502809764,13.466570524782734,1092.9192179032098 80.004782203496,13.466565917372748,1092.1076862520706 80.00478954979977,13.466561619907822,1091.3348502173633 80.00479704171377,13.466557586485505,1090.5926706749228 80.00480465940272,13.466553781111251,1089.8750062620272 80.00481238690101,13.466550174812703,1089.1770569037503 80.00482021118603,13.466546743957842,1088.49504956471 80.00483287945862,13.466541581734528,1087.4318372695527 80.00484573186351,13.466536753156376,1086.3924993207693 80.00485874079497,13.46653220812409,1085.3704939575575 80.00487188391816,13.466527906102582,1084.361047204353 80.00488514290585,13.466523813828722,1083.3606829205867 80.00490637611382,13.466517686262474,1081.7865493058814 80.004927814099,13.466511928982797,1080.2224817783183 80.00494941787144,13.466506471213249,1078.6642616711717 80.0049711563593,13.466501256547568,1077.1093712819488 80.00499300454325,13.466496239564526,1075.5563902212234 80.00502293630288,13.466489651701457,1073.4404133933454 80.0050529932859,13.466483288444566,1071.3252360589213 80.00508314374758,13.466477092157708,1069.2103272166796 80.00511336364261,13.466471019182832,1067.0955683849431 80.00514654806,13.466464461089343,1064.7774147117 80.00517977586343,13.466457978458205,1062.4593621878537 80.00521303253647,13.46645154493219,1060.1414236279702 80.00527198443356,13.466440217236823,1056.0358660265229 80.0053309492595,13.466428902620734,1051.9309125168613 80.00538990644566,13.46641756373843,1047.8266618582534 80.0054488437197,13.466406178308599,1043.723120594706 80.00550267221094,13.46639571679155,1039.9740078892835 80.0055564712471,13.46638519311784,1036.2254803298658 80.00561023803263,13.46637460221293,1032.477556437322 80.0056767182716,13.46636140003861,1027.8409582190375 80.00574314473552,13.466348086950566,1023.2052665211278 80.005809516334,13.466334660971823,1018.5704721607584 80.00587533344644,13.4663212234586,1013.97146067099 80.00594109568874,13.466307673250634,1009.3733404271186 80.00600680290123,13.466294010060782,1004.7761126407022 80.00606884784986,13.466280993879518,1000.4323886679359 80.0061658730478,13.466260415473222,993.6343795896644 80.00626276677988,13.466239607458137,986.8383094352157 80.00627449448852,13.466237071751051,986.0152245104564 80.00628621984319,13.466234533401236,985.1921681325666 80.00629794265494,13.466231992732288,984.3691403657674 80.00632137975454,13.466226905970611,982.723171064416 80.00634480473403,13.466221813271071,981.0773171233184 80.00636821661682,13.466216716307583,979.4315790373179 80.00644021160467,13.46620100818781,974.3651495401202 80.00651205889775,13.466185300019099,969.2998271255057 80.00658374741451,13.466169610832946,964.2356136985478 80.00665527247187,13.466153948703864,959.172507599526 80.00674398653945,13.466134514556776,952.8778366964686 80.00683244332352,13.46611513017447,946.5848701961316 80.00692064209333,13.466095796906664,940.2936057118993 80.00713560286671,13.466048660293637,924.8895095232273 80.0073490097984,13.466001842230828,909.4955831243458 80.00756086266692,13.465955344581088,894.1118001324099 80.0080158858393,13.465855405829393,860.71625348841 80.00846358525749,13.465756978348077,827.3681955155827 80.00890397101276,13.465660059948332,794.0673683534508 80.00943807859606,13.465542377106958,752.9816770779255 80.00954029342904,13.465519858815886,745.0288467930768 80.00960944814845,13.46550466138387,739.6328816959475 80.00967844538819,13.465489564642347,734.238152466983 80.00974729709313,13.465474589324794,728.8446602366054 80.00982617562335,13.465457558240107,722.6537616862306 80.00990488003602,13.465440717892626,716.4644926425746 80.00998341482678,13.465424075976527,710.276850936849 80.01006178043203,13.46540763312113,704.0908340402324 80.0102735172735,13.465364024940072,687.3175401110132 80.01048400945338,13.465321878644241,670.5561491274101 80.01069325829046,13.465281194145527,653.8066300627495 80.01125903450213,13.46517741021564,608.0716304210194 80.01181554368057,13.46508452724703,562.4244110660724 80.01236280285887,13.465002525525362,516.8643345867912 80.01243676481653,13.464992183445121,510.6537452694666 80.01244468673376,13.464991086736934,509.98775940527656 80.01246052375926,13.464988901918833,508.6558458184563 80.01247635085608,13.464986730136268,507.3240120733463 80.01249216704423,13.464984573199974,505.9922606076744 80.01252060976894,13.464980732713723,503.59499670469415 80.01254901074749,13.464976952155023,501.19800937318934 80.0125773670373,13.464973236961972,498.8013009797778 80.0126312084649,13.464966359748693,494.24026848693455 80.01268487163425,13.464959749587933,489.68023202391305 80.01273835030085,13.464953418030232,485.12118512448745 80.01279163891488,13.464947371070775,480.5633323670505 80.01284473852553,13.464941611063052,476.0064537796565 80.0128976483203,13.464936139522207,471.4505415894161 80.01295038324042,13.46493095590529,466.89425707764394 80.01300292745739,13.464926062385507,462.33893834971485 80.01305528083503,13.464921459228126,457.78458614574987 80.01310735671197,13.46491715348737,453.2387715609546 80.01315924230857,13.464913137310345,448.69391587952623 80.01321093763201,13.464909410697414,444.1500174115044 80.01325131577987,13.464906692688375,440.5898538064787 80.01329157710555,13.46490415246951,437.030278099892 80.01333172162546,13.464901790016956,433.4712898595914 80.01371377088722,13.464888107864795,399.09778465448136 80.01408492569425,13.46489100632858,364.77872909461934 80.01444520207353,13.464910461201397,330.51380339681543 80.01491574661333,13.464963158307707,284.20059063724364 80.01496624710406,13.464970793128462,279.1161989572756 80.0149713049392,13.46497157972766,278.6056643901511 80.01497635996915,13.464972369718039,278.09514237185033 80.01498141198965,13.46497316294356,277.5846332653092 80.01499150593824,13.464974758287594,276.56365567877276 80.01500158545898,13.464976364747292,275.54273394100335 80.0150116492479,13.464977981326866,274.52187023379645 80.01504979340874,13.464984213749629,270.63674866855683 80.01508764629665,13.464990544371057,266.75254848385975 80.01512517269215,13.464996946248863,262.8692973322988 80.0151623535215,13.465003404755011,258.9869934449551 80.01520418803757,13.465010804878458,254.5745990697318 80.01524555350446,13.465018260849684,250.16339936561675 80.01528644782611,13.465025770955002,245.75338020188292 80.01532686809767,13.465033332865822,241.34453713645414 80.01536681087948,13.465040943847153,236.93686983288438 80.0154647972991,13.465060225411452,225.89704643710553 80.01555976616649,13.465079797989496,214.8645525253124 80.01565172093477,13.465099662495161,203.8393611736351 80.01574066691269,13.465119821264032,192.82145057168725 80.01582660541328,13.465140273589084,181.81080188779998 80.0159458640224,13.465170445334609,165.8597815866509 80.01605880566046,13.465201229231567,149.92392431118276 80.01616543752331,13.465232625614298,134.00317232726937 80.01626576648871,13.465264634593822,118.09746986954441 80.01653013897999,13.46536482991699,70.23809597991067 80.01655571846061,13.465376183659556,64.98493893067942 80.01658060836584,13.465387604296932,59.733407682274205 80.0166048089197,13.465399091830935,54.48350038934894 80.01660760578568,13.465400445308342,53.867061552356354 80.01661039321554,13.465401799701931,53.250644642082534 80.01661594140586,13.465404511078699,52.01786585856566 80.0166214574624,13.465407225575744,50.785142949767874 80.01662694601585,13.465409942743413,49.552454471823914 80.01663675537847,13.465414831897194,47.336896963017104 80.016646507192,13.465419726639015,45.121358862706074 80.01664856909893,13.465420765196146,44.65153579731869</coordinates>
            </LineString>
        </Placemark>
    </Document>
</kml>
